ONEWEB-0027             
1 45432U 20020J   23281.53970143 -.00000040  00000+0 -13544-3 0  9995
2 45432  87.9176 201.1440 0001583  72.8385 287.2919 13.17648473176950
ONEWEB-0064             
1 45433U 20020K   23281.55917598 -.00000168  00000+0 -50893-3 0  9992
2 45433  87.8980 216.2710 0001718  68.0213 292.1097 13.11416572173896
ONEWEB-0018             
1 45434U 20020L   23281.59166323  .00000355  00000+0  96565-3 0  9991
2 45434  87.8986 216.2539 0002117  74.8972 285.2390 13.11420805173841
ONEWEB-0083             
1 45435U 20020M   23281.58026923  .00000506  00000+0  13925-2 0  9998
2 45435  87.8978 216.2416 0001867  77.3565 282.7772 13.11418272173889
ONEWEB-0095             
1 45436U 20020N   23281.57216758  .00000336  00000+0  91283-3 0  9990
2 45436  87.8985 216.2780 0001749  86.6894 273.4434 13.11419393173886
ONEWEB-0092             
1 45437U 20020P   23281.53966449 -.00001032  00000+0 -29488-2 0  9999
2 45437  87.8986 216.2634 0001755  86.9077 273.2252 13.11420112173998
ONEWEB-0085             
1 45438U 20020Q   23281.57378819  .00000384  00000+0  10476-2 0  9996
2 45438  87.8979 216.2652 0002038  71.7509 288.3840 13.11417364173881
ONEWEB-0096             
1 45439U 20020R   23281.58191426  .00000722  00000+0  20000-2 0  9995
2 45439  87.8977 216.2377 0002218  75.5741 284.5633 13.11413392173878
